[{"OBJECT_NAME":"STARLINK-5093","OBJECT_ID":"2023-058R","EPOCH":"2026-03-09T22:20:13.982496","MEAN_MOTION":15.01261708,"ECCENTRICITY":0.00017421,"INCLINATION":97.6039,"RA_OF_ASC_NODE":70.4031,"ARG_OF_PERICENTER":26.497,"MEAN_ANOMALY":333.6343,"EPHEMERIS_TYPE":0,"CLASSIFICATION_TYPE":"U","NORAD_CAT_ID":56332,"ELEMENT_SET_NO":999,"REV_AT_EPOCH":15816,"BSTAR":1.0624616e-5,"MEAN_MOTION_DOT":7.8e-7,"MEAN_MOTION_DDOT":0},{"OBJECT_NAME":"GSLV R\/B","OBJECT_ID":"2022-138AN","EPOCH":"2026-03-09T17:17:59.229888","MEAN_MOTION":14.96774296,"ECCENTRICITY":0.00230204,"INCLINATION":87.3876,"RA_OF_ASC_NODE":166.352,"ARG_OF_PERICENTER":146.6269,"MEAN_ANOMALY":213.6419,"EPHEMERIS_TYPE":0,"CLASSIFICATION_TYPE":"U","NORAD_CAT_ID":54149,"ELEMENT_SET_NO":999,"REV_AT_EPOCH":18393,"BSTAR":0.00032104808,"MEAN_MOTION_DOT":3.719e-5,"MEAN_MOTION_DDOT":0}]
